ORBCOMM FM115           
1 41186U 15081H   24162.27888576  .00001611  00000+0  36179-3 0  9998
2 41186  47.0000   6.1365 0000897 204.9531 155.1312 14.60790378453366
ORBCOMM FM108           
1 41187U 15081J   24162.89237652  .00002316  00000+0  55130-3 0  9991
2 41187  47.0053  58.5160 0002047  34.6750 325.4268 14.56636005452631
ORBCOMM FM117           
1 41188U 15081K   24162.92732996  .00002292  00000+0  54573-3 0  9990
2 41188  47.0011  57.2399 0002738  51.6446 308.4685 14.56667257452686
